{"type": "FeatureCollection", "features": [ {"type": "Feature", "properties": {"norad_id": 66588, "name": "STARLINK-36076", "group": "last-30-days", "lat": -42.35932223001148, "lon": 109.91119871800431, "alt_km": 447.3959534443402, "timestamp": "2025-12-13T13:34:33.864390+00:00", "meta": {"OBJECT_NAME": "STARLINK-36076", "OBJECT_ID": "2025-270A", "EPOCH": "2025-12-12T20:00:01.999872", "MEAN_MOTION": 15.43274007, "ECCENTRICITY": 0.00012549, "INCLINATION": 42.9991, "RA_OF_ASC_NODE": 192.2462, "ARG_OF_PERICENTER": 277.822, "MEAN_ANOMALY": 251.5784, "EPHEMERIS_TYPE": 0, "CLASSIFICATION_TYPE": "U", "NORAD_CAT_ID": 66588, "ELEMENT_SET_NO": 999, "REV_AT_EPOCH": 441, "BSTAR": -0.047575716, "MEAN_MOTION_DOT": -0.01937914, "MEAN_MOTION_DDOT": 0}, "tle": {"line1": "1 66588U 25270A   25346.83335648 -.01937914  00000+0 -47576-1 0  9994", "line2": "2 66588  42.9991 192.2462 0001254 277.8220 251.5784 15.43274007  4419"}}, "geometry": {"type": "Point", "coordinates": [109.91119871800431, -42.35932223001148]}}, {"type": "Feature", "properties": {"norad_id": 66589, "name": "STARLINK-35447", "group": "last-30-days", "lat": -21.855499708212907, "lon": 162.40348753938002, "alt_km": 416.4947204770542, "timestamp": "2025-12-13T13:34:33.864399+00:00", "meta": {"OBJECT_NAME": "STARLINK-35447", "OBJECT_ID": "2025-270B", "EPOCH": "2025-12-12T20:00:01.999872", "MEAN_MOTION": 15.50567574, "ECCENTRICITY": 0.00016835, "INCLINATION": 42.9995, "RA_OF_ASC_NODE": 192.1831, "ARG_OF_PERICENTER": 279.216, "MEAN_ANOMALY": 275.1186, "EPHEMERIS_TYPE": 0, "CLASSIFICATION_TYPE": "U", "NORAD_CAT_ID": 66589, "ELEMENT_SET_NO": 999, "REV_AT_EPOCH": 452, "BSTAR": -0.00065001663, "MEAN_MOTION_DOT": -0.00038274, "MEAN_MOTION_DDOT": 0}, "tle": {"line1": "1 66589U 25270B   25346.83335648 -.00038274  00000+0 -65002-3 0  9991", "line2": "2 66589  42.9995 192.1831 0001683 279.2160 275.1186 15.50567574  4520"}}, "geometry": {"type": "Point", "coordinates": [162.40348753938002, -21.855499708212907]}}, {"type": "Feature", "properties": {"norad_id": 66590, "name": "STARLINK-35429", "group": "last-30-days", "lat": -23.030707004819387, "lon": 160.76113966246854, "alt_km": 416.76748731151747, "timestamp": "2025-12-13T13:34:33.864408+00:00", "meta": {"OBJECT_NAME": "STARLINK-35429", "OBJECT_ID": "2025-270C", "EPOCH": "2025-12-12T20:00:01.999872", "MEAN_MOTION": 15.5059952, "ECCENTRICITY": 0.00018753, "INCLINATION": 42.9995, "RA_OF_ASC_NODE": 192.188, "ARG_OF_PERICENTER": 265.3644, "MEAN_ANOMALY": 287.0337, "EPHEMERIS_TYPE": 0, "CLASSIFICATION_TYPE": "U", "NORAD_CAT_ID": 66590, "ELEMENT_SET_NO": 999, "REV_AT_EPOCH": 452, "BSTAR": -0.0013316127, "MEAN_MOTION_DOT": -0.0007775, "MEAN_MOTION_DDOT": 0}, "tle": {"line1": "1 66590U 25270C   25346.83335648 -.00077750  00000+0 -13316-2 0  9995", "line2": "2 66590  42.9995 192.1880 0001875 265.3644 287.0337 15.50599520  4528"}}, "geometry": {"type": "Point", "coordinates": [160.76113966246854, -23.030707004819387]}}, {"type": "Feature", "properties": {"norad_id": 66591, "name": "STARLINK-36058", "group": "last-30-days", "lat": -20.6488241845117, "lon": 164.03896682610673, "alt_km": 415.6449646197234, "timestamp": "2025-12-13T13:34:33.864417+00:00", "meta": {"OBJECT_NAME": "STARLINK-36058", "OBJECT_ID": "2025-270D", "EPOCH": "2025-12-12T20:00:01.999872", "MEAN_MOTION": 15.50595298, "ECCENTRICITY": 0.00033107, "INCLINATION": 42.9994, "RA_OF_ASC_NODE": 192.1783, "ARG_OF_PERICENTER": 269.8851, "MEAN_ANOMALY": 286.2192, "EPHEMERIS_TYPE": 0, "CLASSIFICATION_TYPE": "U", "NORAD_CAT_ID": 66591, "ELEMENT_SET_NO": 999, "REV_AT_EPOCH": 441, "BSTAR": 0.00013294324, "MEAN_MOTION_DOT": 7.469e-05, "MEAN_MOTION_DDOT": 0}, "tle": {"line1": "1 66591U 25270D   25346.83335648  .00007469  00000+0  13294-3 0  9990", "line2": "2 66591  42.9994 192.1783 0003310 269.8851 286.2192 15.50595298  4411"}}, "geometry": {"type": "Point", "coordinates": [164.03896682610673, -20.6488241845117]}}, {"type": "Feature", "properties": {"norad_id": 66592, "name": "STARLINK-36066", "group": "last-30-days", "lat": -26.0604415108437, "lon": 156.26004872146095, "alt_km": 431.9531116434091, "timestamp": "2025-12-13T13:34:33.864426+00:00", "meta": {"OBJECT_NAME": "STARLINK-36066", "OBJECT_ID": "2025-270E", "EPOCH": "2025-12-12T20:00:01.999872", "MEAN_MOTION": 15.48651574, "ECCENTRICITY": 0.0001045, "INCLINATION": 42.9993, "RA_OF_ASC_NODE": 192.177, "ARG_OF_PERICENTER": 261.559, "MEAN_ANOMALY": 295.1029, "EPHEMERIS_TYPE": 0, "CLASSIFICATION_TYPE": "U", "NORAD_CAT_ID": 66592, "ELEMENT_SET_NO": 999, "REV_AT_EPOCH": 431, "BSTAR": -0.042843345, "MEAN_MOTION_DOT": -0.02085125, "MEAN_MOTION_DDOT": 0}, "tle": {"line1": "1 66592U 25270E   25346.83335648 -.02085125  00000+0 -42843-1 0  9990", "line2": "2 66592  42.9993 192.1770 0001045 261.5590 295.1029 15.48651574  4313"}}, "geometry": {"type": "Point", "coordinates": [156.26004872146095, -26.0604415108437]}}, {"type": "Feature", "properties": {"norad_id": 66593, "name": "STARLINK-36031", "group": "last-30-days", "lat": -18.235050703409197, "lon": 167.1788519433876, "alt_km": 416.19943058140416, "timestamp": "2025-12-13T13:34:33.864436+00:00", "meta": {"OBJECT_NAME": "STARLINK-36031", "OBJECT_ID": "2025-270F", "EPOCH": "2025-12-12T20:00:01.999872", "MEAN_MOTION": 15.50530097, "ECCENTRICITY": 0.0001754, "INCLINATION": 42.9995, "RA_OF_ASC_NODE": 192.1685, "ARG_OF_PERICENTER": 276.591, "MEAN_ANOMALY": 283.5317, "EPHEMERIS_TYPE": 0, "CLASSIFICATION_TYPE": "U", "NORAD_CAT_ID": 66593, "ELEMENT_SET_NO": 999, "REV_AT_EPOCH": 441, "BSTAR": 0.00011806467, "MEAN_MOTION_DOT": 6.579e-05, "MEAN_MOTION_DDOT": 0}, "tle": {"line1": "1 66593U 25270F   25346.83335648  .00006579  00000+0  11806-3 0  9990", "line2": "2 66593  42.9995 192.1685 0001754 276.5910 283.5317 15.50530097  4411"}}, "geometry": {"type": "Point", "coordinates": [167.1788519433876, -18.235050703409197]}}, {"type": "Feature", "properties": {"norad_id": 66594, "name": "STARLINK-36032", "group": "last-30-days", "lat": -17.050946175207304, "lon": 168.66316311581537, "alt_km": 416.35666208451676, "timestamp": "2025-12-13T13:34:33.864445+00:00", "meta": {"OBJECT_NAME": "STARLINK-36032", "OBJECT_ID": "2025-270G", "EPOCH": "2025-12-12T20:00:01.999872", "MEAN_MOTION": 15.50629322, "ECCENTRICITY": 0.00016597, "INCLINATION": 42.9995, "RA_OF_ASC_NODE": 192.164, "ARG_OF_PERICENTER": 281.1739, "MEAN_ANOMALY": 280.7985, "EPHEMERIS_TYPE": 0, "CLASSIFICATION_TYPE": "U", "NORAD_CAT_ID": 66594, "ELEMENT_SET_NO": 999, "REV_AT_EPOCH": 415, "BSTAR": -0.002190819, "MEAN_MOTION_DOT": -0.00127034, "MEAN_MOTION_DDOT": 0}, "tle": {"line1": "1 66594U 25270G   25346.83335648 -.00127034  00000+0 -21908-2 0  9996", "line2": "2 66594  42.9995 192.1640 0001659 281.1739 280.7985 15.50629322  4159"}}, "geometry": {"type": "Point", "coordinates": [168.66316311581537, -17.050946175207304]}}, {"type": "Feature", "properties": {"norad_id": 66595, "name": "STARLINK-35711", "group": "last-30-days", "lat": -15.787364683906633, "lon": 170.21168120931566, "alt_km": 416.62113046063314, "timestamp": "2025-12-13T13:34:33.864454+00:00", "meta": {"OBJECT_NAME": "STARLINK-35711", "OBJECT_ID": "2025-270H", "EPOCH": "2025-12-12T20:00:01.999872", "MEAN_MOTION": 15.5069409, "ECCENTRICITY": 9.848e-05, "INCLINATION": 42.9994, "RA_OF_ASC_NODE": 192.1593, "ARG_OF_PERICENTER": 261.4299, "MEAN_ANOMALY": 302.3488, "EPHEMERIS_TYPE": 0, "CLASSIFICATION_TYPE": "U", "NORAD_CAT_ID": 66595, "ELEMENT_SET_NO": 999, "REV_AT_EPOCH": 452, "BSTAR": -0.0023548875, "MEAN_MOTION_DOT": -0.00136661, "MEAN_MOTION_DDOT": 0}, "tle": {"line1": "1 66595U 25270H   25346.83335648 -.00136661  00000+0 -23549-2 0  9996", "line2": "2 66595  42.9994 192.1593 0000984 261.4299 302.3488 15.50694090  4522"}}, "geometry": {"type": "Point", "coordinates": [170.21168120931566, -15.787364683906633]}}, {"type": "Feature", "properties": {"norad_id": 66596, "name": "STARLINK-35811", "group": "last-30-days", "lat": -34.63254370366264, "lon": 140.11991565365685, "alt_km": 444.2025383326454, "timestamp": "2025-12-13T13:34:33.864463+00:00", "meta": {"OBJECT_NAME": "STARLINK-35811", "OBJECT_ID": "2025-270J", "EPOCH": "2025-12-12T20:00:01.999872", "MEAN_MOTION": 15.44519662, "ECCENTRICITY": 0.00011603, "INCLINATION": 42.9993, "RA_OF_ASC_NODE": 192.1901, "ARG_OF_PERICENTER": 265.6197, "MEAN_ANOMALY": 285.5496, "EPHEMERIS_TYPE": 0, "CLASSIFICATION_TYPE": "U", "NORAD_CAT_ID": 66596, "ELEMENT_SET_NO": 999, "REV_AT_EPOCH": 452, "BSTAR": -0.048783038, "MEAN_MOTION_DOT": -0.02058537, "MEAN_MOTION_DDOT": 0}, "tle": {"line1": "1 66596U 25270J   25346.83335648 -.02058537  00000+0 -48783-1 0  9990", "line2": "2 66596  42.9993 192.1901 0001160 265.6197 285.5496 15.44519662  4520"}}, "geometry": {"type": "Point", "coordinates": [140.11991565365685, -34.63254370366264]}}, {"type": "Feature", "properties": {"norad_id": 66597, "name": "STARLINK-35820", "group": "last-30-days", "lat": -16.05741895173018, "lon": 169.88324967439868, "alt_km": 425.3112587143396, "timestamp": "2025-12-13T13:34:33.864474+00:00", "meta": {"OBJECT_NAME": "STARLINK-35820", "OBJECT_ID": "2025-270K", "EPOCH": "2025-12-12T20:00:01.999872", "MEAN_MOTION": 15.50615245, "ECCENTRICITY": 0.00013853, "INCLINATION": 42.9996, "RA_OF_ASC_NODE": 192.1488, "ARG_OF_PERICENTER": 273.4686, "MEAN_ANOMALY": 294.2494, "EPHEMERIS_TYPE": 0, "CLASSIFICATION_TYPE": "U", "NORAD_CAT_ID": 66597, "ELEMENT_SET_NO": 999, "REV_AT_EPOCH": 452, "BSTAR": -0.040500454, "MEAN_MOTION_DOT": -0.02111192, "MEAN_MOTION_DDOT": 0}, "tle": {"line1": "1 66597U 25270K   25346.83335648 -.02111192  00000+0 -40500-1 0  9997", "line2": "2 66597  42.9996 192.1488 0001385 273.4686 294.2494 15.50615245  4529"}}, "geometry": {"type": "Point", "coordinates": [169.88324967439868, -16.05741895173018]}}]}